IRIDIUM 106             
1 41917U 17003A   24350.92422770  .00000628  00000+0  21732-3 0  9993
2 41917  86.3958 317.6395 0001873  87.4499 272.6911 14.34223862414627
IRIDIUM 103             
1 41918U 17003B   24350.63247890  .00000391  00000+0  13254-3 0  9997
2 41918  86.3957 317.6627 0002199  68.0972 292.0457 14.34218026414603
IRIDIUM 109             
1 41919U 17003C   24350.91789472  .00000589  00000+0  20329-3 0  9996
2 41919  86.3961 317.5938 0002452  84.1672 275.9803 14.34217435414610
IRIDIUM 102             
1 41920U 17003D   24350.18850180  .00000618  00000+0  21365-3 0  9996
2 41920  86.3958 317.8341 0002280  88.7233 271.4224 14.34219737414593
IRIDIUM 105             
1 41921U 17003E   24350.71738736  .00000402  00000+0  13644-3 0  9990
2 41921  86.3964 286.0331 0002048  84.3214 275.8216 14.34218407416527
IRIDIUM 104             
1 41922U 17003F   24350.82909951  .00000466  00000+0  15920-3 0  9991
2 41922  86.3960 317.6004 0002746  80.3161 279.8344 14.34217139414675
IRIDIUM 114             
1 41923U 17003G   24350.76567323  .00000527  00000+0  18128-3 0  9999
2 41923  86.3959 317.6123 0002158  80.1413 280.0026 14.34220311414645
IRIDIUM 108             
1 41924U 17003H   24350.72419429  .00000195  00000+0  62615-4 0  9991
2 41924  86.3957 285.9431 0001988  87.6237 272.5187 14.34218740416491
